NORAD_CAT_ID,OBJECT_NAME,OBJECT_TYPE,EPOCH,MEAN_MOTION,ECCENTRICITY,INCLINATION,RA_OF_ASC_NODE,ARG_OF_PERICENTER,MEAN_ANOMALY,BSTAR,MEAN_MOTION_DOT,MEAN_MOTION_DDOT,TLE_LINE0,TLE_LINE1,TLE_LINE2,SEMIMAJOR_AXIS,PERIOD,APOGEE,PERIGEE,DECAYED
53595.0,STARLINK-4684,PAYLOAD,2024-05-02 12:06:10,15.08850253,0.0001213,53.2152,39.6476,91.5019,268.6112,0.00012437,1.693e-05,0.0,0 STARLINK-4684,1 53595U 22104H   24123.50429387  .00001693  00000-0  12437-3 0  9995,2 53595  53.2152  39.6476 0001213  91.5019 268.6112 15.08850253 93256,6917.849,95.437,540.553,538.875,0.0
53595.0,STARLINK-4684,PAYLOAD,2024-05-03 04:00:01,15.08858036,0.0001329,53.2174,36.6714,87.7884,272.326,0.00035151,5.313e-05,0.0,0 STARLINK-4684,1 53595U 22104H   24124.16668972  .00005313  00000-0  35151-3 0  9994,2 53595  53.2174  36.6714 0001329  87.7884 272.3260 15.08858036 93968,6917.825,95.436,540.61,538.771,0.0
53595.0,STARLINK-4684,PAYLOAD,2024-05-03 21:29:17,15.0882309,0.0001245,53.2164,33.4024,96.5293,263.5841,-0.00025389,-4.324e-05,0.0,0 STARLINK-4684,1 53595U 22104H   24124.89534450 -.00004324  00000-0 -25389-3 0  9992,2 53595  53.2164  33.4024 0001245  96.5293 263.5841 15.08823090 93469,6917.932,95.439,540.658,538.936,0.0
53595.0,STARLINK-4684,PAYLOAD,2024-05-04 21:20:05,15.08838946,0.000124,53.2176,28.9418,101.3177,258.7954,0.00018344,2.633e-05,0.0,0 STARLINK-4684,1 53595U 22104H   24125.88894711  .00002633  00000-0  18344-3 0  9993,2 53595  53.2176  28.9418 0001240 101.3177 258.7954 15.08838946 93613,6917.884,95.438,540.606,538.891,0.0
53595.0,STARLINK-4684,PAYLOAD,2024-05-05 03:41:37,15.08850457,0.0001109,53.2179,27.7522,97.5896,262.5222,0.00047718,7.317e-05,0.0,0 STARLINK-4684,1 53595U 22104H   24126.15390513  .00007317  00000-0  47718-3 0  9996,2 53595  53.2179  27.7522 0001109  97.5896 262.5222 15.08850457 93653,6917.848,95.437,540.481,538.946,0.0
53595.0,STARLINK-4684,PAYLOAD,2024-05-05 21:10:51,15.0885247,0.0001201,53.218,24.4817,105.0274,255.0851,0.00045167,6.91e-05,0.0,0 STARLINK-4684,1 53595U 22104H   24126.88254497  .00006910  00000-0  45167-3 0  9990,2 53595  53.2180  24.4817 0001201 105.0274 255.0851 15.08852470 93768,6917.842,95.437,540.538,538.876,0.0
53595.0,STARLINK-4684,PAYLOAD,2024-05-05 22:46:14,15.0885542,0.00012,53.218,24.1844,105.485,254.6274,0.00050291,7.728e-05,0.0,0 STARLINK-4684,1 53595U 22104H   24126.94878397  .00007728  00000-0  50291-3 0  9990,2 53595  53.2180  24.1844 0001200 105.4850 254.6274 15.08855420 94389,6917.833,95.437,540.528,538.868,0.0
53595.0,STARLINK-4684,PAYLOAD,2024-05-06 09:53:56,15.08866519,0.0001054,53.2179,22.1043,94.3928,265.7185,0.00064153,9.944e-05,0.0,0 STARLINK-4684,1 53595U 22104H   24127.41245748  .00009944  00000-0  64153-3 0  9995,2 53595  53.2179  22.1043 0001054  94.3928 265.7185 15.08866519 94458,6917.799,95.436,540.393,538.935,0.0
53595.0,STARLINK-4684,PAYLOAD,2024-05-06 21:01:38,15.08851778,0.0002002,53.218,20.0216,85.1205,275.0015,0.00025405,3.759e-05,0.0,0 STARLINK-4684,1 53595U 22104H   24127.87613956  .00003759  00000-0  25405-3 0  9990,2 53595  53.2180  20.0216 0002002  85.1205 275.0015 15.08851778 93916,6917.844,95.437,541.094,538.324,0.0
53595.0,STARLINK-4684,PAYLOAD,2024-05-06 22:37:01,15.08849008,0.0001405,53.2196,19.7276,100.0707,260.0444,3.0427e-05,1.96e-06,0.0,0 STARLINK-4684,1 53595U 22104H   24127.94237825  .00000196  00000-0  30427-4 0  9998,2 53595  53.2196  19.7276 0001405 100.0707 260.0444 15.08849008 94536,6917.853,95.437,540.69,538.746,0.0
53595.0,STARLINK-4684,PAYLOAD,2024-05-07 09:44:43,15.08846235,0.0001515,53.2173,17.6404,76.1974,283.9186,3.3989e-05,2.53e-06,0.0,0 STARLINK-4684,1 53595U 22104H   24128.40605851  .00000253  00000-0  33989-4 0  9998,2 53595  53.2173  17.6404 0001515  76.1974 283.9186 15.08846235 93997,6917.861,95.437,540.774,538.678,0.0
53595.0,STARLINK-4684,PAYLOAD,2024-05-07 20:52:26,15.08829722,0.0001628,53.2198,15.565,82.3529,277.7648,-0.00022548,-3.874e-05,0.0,0 STARLINK-4684,1 53595U 22104H   24128.86974659 -.00003874  00000-0 -22548-3 0  9995,2 53595  53.2198  15.5650 0001628  82.3529 277.7648 15.08829722 94069,6917.912,95.438,540.903,538.651,0.0
53595.0,STARLINK-4684,PAYLOAD,2024-05-07 22:27:49,15.08832327,0.0001289,53.2175,15.2643,77.2166,282.897,-0.00017034,-2.997e-05,0.0,0 STARLINK-4684,1 53595U 22104H   24128.93598709 -.00002997  00000-0 -17034-3 0  9990,2 53595  53.2175  15.2643 0001289  77.2166 282.8970 15.08832327 94684,6917.904,95.438,540.661,538.877,0.0
53595.0,STARLINK-4684,PAYLOAD,2024-05-08 01:38:34,15.0884449,0.0001022,53.2187,14.6708,114.6868,245.4231,1.3008e-05,-8.1e-07,0.0,0 STARLINK-4684,1 53595U 22104H   24129.06846005 -.00000081  00000-0  13008-4 0  9999,2 53595  53.2187  14.6708 0001022 114.6868 245.4231 15.08844490 94096,6917.867,95.437,540.439,539.025,0.0
53595.0,STARLINK-4684,PAYLOAD,2024-05-08 20:43:13,15.08839644,0.0001005,53.2166,11.1014,110.7475,249.3625,0.00011358,1.52e-05,0.0,0 STARLINK-4684,1 53595U 22104H   24129.86334491  .00001520  00000-0  11358-3 0  9991,2 53595  53.2166  11.1014 0001005 110.7475 249.3625 15.08839644 94216,6917.881,95.438,540.442,539.051,0.0
53595.0,STARLINK-4684,PAYLOAD,2024-05-08 22:18:36,15.08839295,0.0001024,53.2168,10.8023,82.1431,277.9677,0.00012095,1.638e-05,0.0,0 STARLINK-4684,1 53595U 22104H   24129.92958612  .00001638  00000-0  12095-3 0  9994,2 53595  53.2168  10.8023 0001024  82.1431 277.9677 15.08839295 94833,6917.883,95.438,540.456,539.039,0.0
53595.0,STARLINK-4684,PAYLOAD,2024-05-09 22:09:23,15.08849284,0.0001011,53.2177,6.3456,82.2557,277.855,0.0002667,3.96e-05,0.0,0 STARLINK-4684,1 53595U 22104H   24130.92318402  .00003960  00000-0  26670-3 0  9997,2 53595  53.2177   6.3456 0001011  82.2557 277.8550 15.08849284 94983,6917.852,95.437,540.416,539.018,0.0
53595.0,STARLINK-4684,PAYLOAD,2024-05-10 09:17:04,15.08848728,0.0001114,53.2163,4.264,56.8815,303.2284,0.00020397,2.961e-05,0.0,0 STARLINK-4684,1 53595U 22104H   24131.38686315  .00002961  00000-0  20397-3 0  9999,2 53595  53.2163   4.2640 0001114  56.8815 303.2284 15.08848728 95057,6917.854,95.437,540.489,538.948,0.0
53595.0,STARLINK-4684,PAYLOAD,2024-05-10 20:24:47,15.08848479,0.000127,53.2195,2.1814,83.103,277.0107,1.2443e-05,-9e-07,0.0,0 STARLINK-4684,1 53595U 22104H   24131.85054467 -.00000090  00000-0  12443-4 0  9994,2 53595  53.2195   2.1814 0001270  83.1030 277.0107 15.08848479 94512,6917.854,95.437,540.598,538.841,0.0
53595.0,STARLINK-4684,PAYLOAD,2024-05-10 22:00:10,15.08849404,0.0001336,53.2192,1.8845,74.027,286.0869,6.7689e-06,-1.8e-06,0.0,0 STARLINK-4684,1 53595U 22104H   24131.91678400 -.00000180  00000-0  67689-5 0  9993,2 53595  53.2192   1.8845 0001336  74.0270 286.0869 15.08849404 95130,6917.852,95.437,540.641,538.792,0.0
53595.0,STARLINK-4684,PAYLOAD,2024-05-11 01:10:55,15.08867112,0.0001147,53.2189,1.2829,101.6979,258.4142,0.00017507,2.501e-05,0.0,0 STARLINK-4684,1 53595U 22104H   24132.04925144  .00002501  00000-0  17507-3 0  9998,2 53595  53.2189   1.2829 0001147 101.6979 258.4142 15.08867112 94542,6917.798,95.436,540.456,538.869,0.0
53595.0,STARLINK-4684,PAYLOAD,2024-05-11 21:50:59,15.08772896,0.0001331,53.2182,357.4241,77.8563,282.2579,-0.0013537,-0.00021728,0.0,0 STARLINK-4684,1 53595U 22104H   24132.91040530 -.00021728  00000-0 -13537-2 0  9993,2 53595  53.2182 357.4241 0001331  77.8563 282.2579 15.08772896 94674,6918.086,95.442,540.871,539.03,0.0
53595.0,STARLINK-4684,PAYLOAD,2024-05-12 07:23:19,15.08770681,0.0001306,53.2188,355.6411,75.1362,284.9775,-0.0011332,-0.00018243,0.0,0 STARLINK-4684,1 53595U 22104H   24133.30786001 -.00018243  00000-0 -11332-2 0  9996,2 53595  53.2188 355.6411 0001306  75.1362 284.9775 15.08770681 94733,6918.092,95.442,540.861,539.054,0.0
53595.0,STARLINK-4684,PAYLOAD,2024-05-12 21:41:46,15.0882739,0.0001349,53.218,352.9625,86.2264,273.8883,0.00026736,3.968e-05,0.0,0 STARLINK-4684,1 53595U 22104H   24133.90401222  .00003968  00000-0  26736-3 0  9992,2 53595  53.2180 352.9625 0001349  86.2264 273.8883 15.08827390 94820,6917.919,95.438,540.717,538.851,0.0
53595.0,STARLINK-4684,PAYLOAD,2024-05-13 07:14:05,15.08836503,0.0001233,53.2181,351.1771,83.7442,276.3691,0.00044542,6.807e-05,0.0,0 STARLINK-4684,1 53595U 22104H   24134.30145353  .00006807  00000-0  44542-3 0  9997,2 53595  53.2181 351.1771 0001233  83.7442 276.3691 15.08836503 95491,6917.891,95.438,540.609,538.903,0.0
53595.0,STARLINK-4684,PAYLOAD,2024-05-13 21:32:33,15.08847362,0.0001204,53.2166,348.4985,64.9015,295.2102,0.00092598,0.00014483,0.0,0 STARLINK-4684,1 53595U 22104H   24134.89761307  .00014483  00000-0  92598-3 0  9997,2 53595  53.2166 348.4985 0001204  64.9015 295.2102 15.08847362 95587,6917.858,95.437,540.556,538.89,0.0
53595.0,STARLINK-4684,PAYLOAD,2024-05-14 07:04:52,15.08851133,0.0001174,53.2165,346.715,73.4314,286.6807,0.00071226,0.00011069,0.0,0 STARLINK-4684,1 53595U 22104H   24135.29504951  .00011069  00000-0  71226-3 0  9994,2 53595  53.2165 346.7150 0001174  73.4314 286.6807 15.08851133 95648,6917.846,95.437,540.524,538.899,0.0
53595.0,STARLINK-4684,PAYLOAD,2024-05-14 21:23:19,15.08859451,0.0001362,53.2174,344.0406,83.7725,276.3422,0.00013665,1.889e-05,0.0,0 STARLINK-4684,1 53595U 22104H   24135.89119853  .00001889  00000-0  13665-3 0  9995,2 53595  53.2174 344.0406 0001362  83.7725 276.3422 15.08859451 95732,6917.821,95.436,540.628,538.744,0.0
53595.0,STARLINK-4684,PAYLOAD,2024-05-14 22:58:42,15.08861459,0.0001421,53.2173,343.7435,85.846,274.2695,0.00015604,2.198e-05,0.0,0 STARLINK-4684,1 53595U 22104H   24135.95743641  .00002198  00000-0  15604-3 0  9999,2 53595  53.2173 343.7435 0001421  85.8460 274.2695 15.08861459 95138,6917.815,95.436,540.663,538.697,0.0
53595.0,STARLINK-4684,PAYLOAD,2024-05-15 06:55:38,15.08854823,0.0001535,53.2169,342.2538,85.2592,274.8575,-4.7626e-06,-3.64e-06,0.0,0 STARLINK-4684,1 53595U 22104H   24136.28863646 -.00000364  00000-0 -47626-5 0  9990,2 53595  53.2169 342.2538 0001535  85.2592 274.8575 15.08854823 95182,6917.835,95.437,540.762,538.638,0.0
